GIOVE-A                 
1 28922U 05051A   13026.28294509 -.00000011  00000-0  10000-3 0   566
2 28922  56.3069 122.5779 0005102   5.4432 354.5717  1.69434201 43923
GIOVE-B                 
1 32781U 08020A   13025.87063182  .00000017  00000-0  10000-3 0  6862
2 32781  56.8634 157.5885 0002848 161.6014 198.3544  1.65404436 29586
GALILEO-PFM (GSAT0101)  
1 37846U 11060A   13027.83857381  .00000000  00000-0  10000-3 0  1808
2 37846  54.8360 116.7620 0001638 326.7472  33.2806  1.70475464  7689
GALILEO-FM2 (GSAT0102)  
1 37847U 11060B   13026.59947492 -.00000013  00000-0  10000-3 0  1797
2 37847  54.8381 116.7944 0003763 262.5415  97.4395  1.70474647  7897
GALILEO-FM3 (GSAT0103)  
1 38857U 12055A   13024.94803915  .00000072  00000-0  10000-3 0   469
2 38857  55.2883 236.6414 0000306 172.5433 187.5290  1.70473491  1788
GALILEO-FM4 (GSAT0104)  
1 38858U 12055B   13027.81581985  .00000000  00000-0  10000-3 0   426
2 38858  55.3125 236.5575 0000284 344.8763  15.1881  1.70471914  1837
